COSMOS 2503             
1 40420U 15009A   26068.69626972  .00002817  00000+0  19590-3 0  9998
2 40420  97.8437 123.7175 0015321 225.7450 134.2520 15.06275973603958
STARLINK-6334           
1 57238U 23094W   26068.21681556  .00000101  00000+0  22546-4 0  9993
2 57238  43.0061  20.3390 0001720 259.4052 100.6597 15.02533262147194
